NORAD_CAT_ID,OBJECT_NAME,OBJECT_TYPE,EPOCH,MEAN_MOTION,ECCENTRICITY,INCLINATION,RA_OF_ASC_NODE,ARG_OF_PERICENTER,MEAN_ANOMALY,BSTAR,MEAN_MOTION_DOT,MEAN_MOTION_DDOT,TLE_LINE0,TLE_LINE1,TLE_LINE2,SEMIMAJOR_AXIS,PERIOD,APOGEE,PERIGEE,DECAYED
51758.0,STARLINK-3458,PAYLOAD,2022-07-16 14:00:01,15.08869071,0.0001723,53.2162,169.1616,58.792,14.77,-0.0042624,-0.00067543,0.0,0 STARLINK-3458,1 51758U 22016AW  22197.58334491 -.00067543  00000-0 -42624-2 0  9992,2 51758  53.2162 169.1616 0001723  58.7920  14.7700 15.08869071  1309,6917.792,95.436,540.8480000000002,538.465,0.0
51758.0,STARLINK-3458,PAYLOAD,2022-07-16 22:00:00,15.0883306,0.0001659,53.2163,167.6645,64.8195,20.3481,0.0015947,0.00025178,0.0,0 STARLINK-3458,1 51758U 22016AW  22197.91667824  .00025178  00000-0  15947-2 0  9992,2 51758  53.2163 167.6645 0001659  64.8195  20.3481 15.08833060  1303,6917.901999999999,95.438,540.914,538.619,0.0
51758.0,STARLINK-3458,PAYLOAD,2022-07-17 14:00:01,15.08869624,0.0001675,53.2163,164.6727,58.3281,50.0279,-0.0044015,-0.00069717,0.0,0 STARLINK-3458,1 51758U 22016AW  22198.58334491 -.00069717  00000-0 -44015-2 0  9994,2 51758  53.2163 164.6727 0001675  58.3281  50.0279 15.08869624 23891,6917.79,95.436,540.814,538.496,0.0
51758.0,STARLINK-3458,PAYLOAD,2022-07-17 22:00:00,15.08826199,0.0001634,53.2164,163.1756,63.5162,56.4347,0.001042,0.00016328,0.0,0 STARLINK-3458,1 51758U 22016AW  22198.91667824  .00016328  00000-0  10420-2 0  9991,2 51758  53.2164 163.1756 0001634  63.5162  56.4347 15.08826199  1307,6917.9230000000025,95.438,540.918,538.6569999999998,0.0
51758.0,STARLINK-3458,PAYLOAD,2022-07-18 06:00:00,15.08823686,0.0001783,53.2164,161.6811,56.4513,75.0906,0.0012154,0.00019099,0.0,0 STARLINK-3458,1 51758U 22016AW  22199.25001157  .00019099  00000-0  12154-2 0  9994,2 51758  53.2164 161.6811 0001783  56.4513  75.0906 15.08823686 23993,6917.93,95.439,541.029,538.562,0.0
51758.0,STARLINK-3458,PAYLOAD,2022-07-18 14:00:01,15.08855591,0.0001683,53.2164,160.1836,57.8746,85.2491,-0.0017158,-0.00027503,0.0,0 STARLINK-3458,1 51758U 22016AW  22199.58334491 -.00027503  00000-0 -17158-2 0  9990,2 51758  53.2164 160.1836 0001683  57.8746  85.2491 15.08855591  1309,6917.833000000001,95.437,540.862,538.533,0.0
51758.0,STARLINK-3458,PAYLOAD,2022-07-18 22:00:00,15.08848818,0.000165,53.2167,158.6867,62.7388,91.9852,-0.0014731,-0.00023662,0.0,0 STARLINK-3458,1 51758U 22016AW  22199.91667824 -.00023662  00000-0 -14731-2 0  9992,2 51758  53.2167 158.6867 0001650  62.7388  91.9852 15.08848818  1308,6917.853,95.437,540.86,538.577,0.0
51758.0,STARLINK-3458,PAYLOAD,2022-07-19 06:00:00,15.08815059,0.0001768,53.2167,157.1921,54.6317,111.6905,0.0018481,0.00029227,0.0,0 STARLINK-3458,1 51758U 22016AW  22200.25001157  .00029227  00000-0  18481-2 0  9990,2 51758  53.2167 157.1921 0001768  54.6317 111.6905 15.08815059 24142,6917.956999999999,95.439,541.045,538.599,0.0
51758.0,STARLINK-3458,PAYLOAD,2022-07-19 14:00:01,15.08851069,0.000168,53.2167,155.6945,57.6349,120.2682,-0.0012515,-0.00020157,0.0,0 STARLINK-3458,1 51758U 22016AW  22200.58334491 -.00020157  00000-0 -12515-2 0  9993,2 51758  53.2167 155.6945 0001680  57.6349 120.2682 15.08851069  1304,6917.847,95.437,540.874,538.549,0.0
51758.0,STARLINK-3458,PAYLOAD,2022-07-19 22:00:00,15.08883525,0.0001675,53.2172,154.2012,62.9462,126.54,-0.007601,-0.00119402,0.0,0 STARLINK-3458,1 51758U 22016AW  22200.91667824 -.00119402  00000-0 -76010-2 0  9991,2 51758  53.2172 154.2012 0001675  62.9462 126.5400 15.08883525  1308,6917.746999999999,95.435,540.771,538.4540000000002,0.0
51758.0,STARLINK-3458,PAYLOAD,2022-07-20 06:00:00,15.08825813,0.0001732,53.2169,152.703,53.6569,147.4537,0.0020525,0.00032516,0.0,0 STARLINK-3458,1 51758U 22016AW  22201.25001157  .00032516  00000-0  20525-2 0  9998,2 51758  53.2169 152.7030 0001732  53.6569 147.4537 15.08825813 24298,6917.924,95.438,540.987,538.591,0.0
51758.0,STARLINK-3458,PAYLOAD,2022-07-20 14:00:01,15.08844263,0.0001641999999999,53.2169,151.2052,58.0215,154.6804,-0.0020493,-0.00032759,0.0,0 STARLINK-3458,1 51758U 22016AW  22201.58334491 -.00032759  00000-0 -20493-2 0  9999,2 51758  53.2169 151.2052 0001642  58.0215 154.6804 15.08844263  1307,6917.8669999999975,95.437,540.868,538.596,0.0
51758.0,STARLINK-3458,PAYLOAD,2022-07-20 22:00:01,15.08843445,0.0001663,53.2171,149.7087,63.4262,160.91299999999995,-0.001027,-0.00016597,0.0,0 STARLINK-3458,1 51758U 22016AW  22201.91668981 -.00016597  00000-0 -10270-2 0  9994,2 51758  53.2171 149.7087 0001663  63.4262 160.9130 15.08843445 24392,6917.87,95.437,540.885,538.5840000000002,0.0
51758.0,STARLINK-3458,PAYLOAD,2022-07-21 14:00:01,15.08820042,0.0001587,53.2169,146.7161,58.7481,188.748,-0.00038728,-6.443e-05,0.0,0 STARLINK-3458,1 51758U 22016AW  22202.58335648 -.00006443  00000-0 -38728-3 0  9997,2 51758  53.2169 146.7161 0001587  58.7481 188.7480 15.08820042  1304,6917.941,95.439,540.904,538.7090000000002,0.0
51758.0,STARLINK-3458,PAYLOAD,2022-07-21 22:00:00,15.0883344,0.0001595999999999,53.217,145.2199,63.2769,195.7173,-0.00032989,-5.533e-05,0.0,0 STARLINK-3458,1 51758U 22016AW  22202.91667824 -.00005533  00000-0 -32989-3 0  9990,2 51758  53.2170 145.2199 0001596  63.2769 195.7173 15.08833440  1304,6917.9,95.438,540.87,538.661,0.0
51758.0,STARLINK-3458,PAYLOAD,2022-07-22 06:00:00,15.08813435,0.000173,53.2168,143.7251,55.9698,214.6202,0.0030304999999999,0.00048238,0.0,0 STARLINK-3458,1 51758U 22016AW  22203.25001157  .00048238  00000-0  30305-2 0  9995,2 51758  53.2168 143.7251 0001730  55.9698 214.6202 15.08813435 24594,6917.962,95.439,541.023,538.63,0.0
51758.0,STARLINK-3458,PAYLOAD,2022-07-22 22:00:00,15.08872923,0.0001564,53.2167,140.731,65.9144,227.8644,-0.00075007,-0.00012216,0.0,0 STARLINK-3458,1 51758U 22016AW  22203.91667824 -.00012216  00000-0 -75007-3 0  9995,2 51758  53.2167 140.7310 0001564  65.9144 227.8644 15.08872923 24692,6917.78,95.435,540.727,538.563,0.0
51758.0,STARLINK-3458,PAYLOAD,2022-07-23 14:00:01,15.08809981,0.0001601,53.2164,137.738,64.2336,252.8271,0.00027037,4.014e-05,0.0,0 STARLINK-3458,1 51758U 22016AW  22204.58335648  .00004014  00000-0  27037-3 0  9990,2 51758  53.2164 137.7380 0001601  64.2336 252.8271 15.08809981  1300,6917.972,95.439,540.945,538.73,0.0
51758.0,STARLINK-3458,PAYLOAD,2022-07-23 16:00:00,15.08788819,0.0001567,53.2162,137.3637,66.3865,343.5089,0.0031986999999999,0.00050916,0.0,0 STARLINK-3458,1 51758U 22016AW  22204.66667824  .00050916  00000-0  31987-2 0  9993,2 51758  53.2162 137.3637 0001567  66.3865 343.5089 15.08788819 24812,6918.0369999999975,95.441,540.986,538.818,0.0
51758.0,STARLINK-3458,PAYLOAD,2022-07-23 22:00:00,15.08837875,0.0001638,53.2165,136.2421,66.8487,261.7102,-0.00083414,-0.00013538,0.0,0 STARLINK-3458,1 51758U 22016AW  22204.91667824 -.00013538  00000-0 -83414-3 0  9995,2 51758  53.2165 136.2421 0001638  66.8487 261.7102 15.08837875  1301,6917.887,95.438,540.885,538.619,0.0
51758.0,STARLINK-3458,PAYLOAD,2022-07-24 14:00:01,15.08807921,0.0001656,53.2163,133.2492,63.9231,287.7713,0.0012701,0.00019966,0.0,0 STARLINK-3458,1 51758U 22016AW  22205.58334491  .00019966  00000-0  12701-2 0  9999,2 51758  53.2163 133.2492 0001656  63.9231 287.7713 15.08807921  1304,6917.978,95.44,540.989,538.698,0.0
51758.0,STARLINK-3458,PAYLOAD,2022-07-24 22:00:00,15.08843138,0.0001725,53.2164,131.7535,65.1949,298.0611,-0.0012453,-0.00020054,0.0,0 STARLINK-3458,1 51758U 22016AW  22205.91667824 -.00020054  00000-0 -12453-2 0  9991,2 51758  53.2164 131.7535 0001725  65.1949 298.0611 15.08843138  1305,6917.871,95.437,540.929,538.5419999999998,0.0
51758.0,STARLINK-3458,PAYLOAD,2022-07-25 14:00:01,15.08822031,0.0001720999999999,53.2166,128.7603,64.7895,321.6442,0.0017457,0.0002759,0.0,0 STARLINK-3458,1 51758U 22016AW  22206.58334491  .00027590  00000-0  17457-2 0  9995,2 51758  53.2166 128.7603 0001721  64.7895 321.6442 15.08822031  1304,6917.935,95.439,540.991,538.61,0.0
51758.0,STARLINK-3458,PAYLOAD,2022-07-25 22:00:00,15.08860195,0.0001829,53.2168,127.2647,65.0373,332.9771,-0.0015673,-0.00025159,0.0,0 STARLINK-3458,1 51758U 22016AW  22206.91667824 -.00025159  00000-0 -15673-2 0  9990,2 51758  53.2168 127.2647 0001829  65.0373 332.9771 15.08860195  1305,6917.819,95.436,540.9490000000002,538.418,0.0
51758.0,STARLINK-3458,PAYLOAD,2022-07-26 14:00:01,15.0883657,0.0001795,53.2172,124.2713,65.4618,355.773,0.0021991999999999,0.00034883,0.0,0 STARLINK-3458,1 51758U 22016AW  22207.58334491  .00034883  00000-0  21992-2 0  9998,2 51758  53.2172 124.2713 0001795  65.4618 355.7730 15.08836570  1307,6917.891,95.438,540.998,538.514,0.0
51758.0,STARLINK-3458,PAYLOAD,2022-07-26 22:00:00,15.08880044,0.0001895,53.2174,122.7758,65.023,7.8132,-0.0018957999999999,-0.00030367,0.0,0 STARLINK-3458,1 51758U 22016AW  22207.91667824 -.00030367  00000-0 -18958-2 0  9997,2 51758  53.2174 122.7758 0001895  65.0230   7.8132 15.08880044  1304,6917.7580000000025,95.435,540.934,538.312,0.0
51758.0,STARLINK-3458,PAYLOAD,2022-07-27 06:00:02,15.08847994,0.0001916999999999,53.2174,121.2804,58.4951,26.0365,4.5487e-05,4.36e-06,0.0,0 STARLINK-3458,1 51758U 22016AW  22208.25002315  .00000436  00000-0  45487-4 0  9994,2 51758  53.2174 121.2804 0001917  58.4951  26.0365 15.08847994 25350,6917.856,95.437,541.047,538.395,0.0
51758.0,STARLINK-3458,PAYLOAD,2022-07-27 14:00:01,15.08823877,0.0001745,53.2178,119.7824,64.7396,31.3443,0.0024857,0.00039476,0.0,0 STARLINK-3458,1 51758U 22016AW  22208.58334491  .00039476  00000-0  24857-2 0  9995,2 51758  53.2178 119.7824 0001745  64.7396  31.3443 15.08823877  1309,6917.93,95.439,541.002,538.587,0.0
51758.0,STARLINK-3458,PAYLOAD,2022-07-27 22:00:00,15.08878148,0.0001831999999999,53.2179,118.287,63.5616,44.1114,-0.0042876,-0.00067954,0.0,0 STARLINK-3458,1 51758U 22016AW  22208.91667824 -.00067954  00000-0 -42876-2 0  9996,2 51758  53.2179 118.2870 0001832  63.5616  44.1114 15.08878148  1302,6917.764,95.435,540.896,538.361,0.0
